NORAD_CAT_ID,OBJECT_NAME,OBJECT_TYPE,EPOCH,MEAN_MOTION,ECCENTRICITY,INCLINATION,RA_OF_ASC_NODE,ARG_OF_PERICENTER,MEAN_ANOMALY,BSTAR,MEAN_MOTION_DOT,MEAN_MOTION_DDOT,TLE_LINE0,TLE_LINE1,TLE_LINE2,SEMIMAJOR_AXIS,PERIOD,APOGEE,PERIGEE,DECAYED
54784.0,STARLINK-5442,PAYLOAD,2023-10-12 15:00:55,15.08848393,0.0001633,53.2182,30.1508,87.5189,272.599,0.00082732,0.00012906,0.0,0 STARLINK-5442,1 54784U 22175AC  23285.62564581  .00012906  00000-0  82732-3 0  9995,2 54784  53.2182  30.1508 0001633  87.5189 272.5990 15.08848393 45056,6917.855,95.437,540.849,538.59,0.0
54784.0,STARLINK-5442,PAYLOAD,2023-10-13 00:33:14,15.08844893,0.000159,53.2171,28.3684,80.8236,279.2936,0.00059336,9.169e-05,0.0,0 STARLINK-5442,1 54784U 22175AC  23286.02308736  .00009169  00000-0  59336-3 0  9999,2 54784  53.2171  28.3684 0001590  80.8236 279.2936 15.08844893 45111,6917.865,95.437,540.83,538.63,0.0
54784.0,STARLINK-5442,PAYLOAD,2023-10-13 13:16:19,15.08847195,0.0001665,53.2174,25.989,93.9508,266.1675,0.00041695,6.355e-05,0.0,0 STARLINK-5442,1 54784U 22175AC  23286.55300742  .00006355  00000-0  41695-3 0  9999,2 54784  53.2174  25.9890 0001665  93.9508 266.1675 15.08847195 47357,6917.858,95.437,540.875,538.572,0.0
54784.0,STARLINK-5442,PAYLOAD,2023-10-14 13:07:06,15.08864678,0.0001469,53.2174,21.5282,88.8631,271.2529,0.00059692,9.231e-05,0.0,0 STARLINK-5442,1 54784U 22175AC  23287.54659976  .00009231  00000-0  59692-3 0  9997,2 54784  53.2174  21.5282 0001469  88.8631 271.2529 15.08864678 47503,6917.805,95.436,540.686,538.654,0.0
54784.0,STARLINK-5442,PAYLOAD,2023-10-15 12:57:54,15.08828082,0.0001423,53.2179,17.0706,102.6114,257.5037,-0.00021234,-3.665e-05,0.0,0 STARLINK-5442,1 54784U 22175AC  23288.54021014 -.00003665  00000-0 -21234-3 0  9992,2 54784  53.2179  17.0706 0001423 102.6114 257.5037 15.08828082 45496,6917.917,95.438,540.766,538.797,0.0
54784.0,STARLINK-5442,PAYLOAD,2023-10-15 16:08:40,15.08829897,0.0001392,53.2184,16.473,100.2949,259.82,-0.00012682,-2.305e-05,0.0,0 STARLINK-5442,1 54784U 22175AC  23288.67269095 -.00002305  00000-0 -12682-3 0  9996,2 54784  53.2184  16.4730 0001392 100.2949 259.8200 15.08829897 47671,6917.911,95.438,540.739,538.813,0.0
54784.0,STARLINK-5442,PAYLOAD,2023-10-16 12:48:41,15.08850268,0.0001421,53.2176,12.6097,105.3158,254.7992,0.0010974,0.00017225,0.0,0 STARLINK-5442,1 54784U 22175AC  23289.53381463  .00017225  00000-0  10974-2 0  9992,2 54784  53.2176  12.6097 0001421 105.3158 254.7992 15.08850268 45640,6917.849,95.437,540.697,538.731,0.0
54784.0,STARLINK-5442,PAYLOAD,2023-10-17 12:39:28,15.08863996,0.0001417,53.2164,8.149,96.7332,263.3821,0.00077689,0.00012106,0.0,0 STARLINK-5442,1 54784U 22175AC  23290.52740749  .00012106  00000-0  77689-3 0  9999,2 54784  53.2164   8.1490 0001417  96.7332 263.3821 15.08863996 45791,6917.807,95.436,540.652,538.692,0.0
54784.0,STARLINK-5442,PAYLOAD,2023-10-17 23:47:10,15.08826742,0.0001528,53.2169,6.067,112.6099,247.5055,-0.00066295,-0.00010819,0.0,0 STARLINK-5442,1 54784U 22175AC  23290.99108844 -.00010819  00000-0 -66295-3 0  9996,2 54784  53.2169   6.0670 0001528 112.6099 247.5055 15.08826742 48024,6917.921,95.438,540.843,538.729,0.0
54784.0,STARLINK-5442,PAYLOAD,2023-10-18 12:30:15,15.0884459,0.0001518,53.2163,3.6896,103.537,256.5791,0.00021097,3.072e-05,0.0,0 STARLINK-5442,1 54784U 22175AC  23291.52100869  .00003072  00000-0  21097-3 0  9997,2 54784  53.2163   3.6896 0001518 103.5370 256.5791 15.08844590 45947,6917.866,95.437,540.781,538.681,0.0
54784.0,STARLINK-5442,PAYLOAD,2023-10-18 22:02:34,15.08840164,0.0001672,53.2163,1.9055,90.7471,269.3713,0.0004313,6.583e-05,0.0,0 STARLINK-5442,1 54784U 22175AC  23291.91845257  .00006583  00000-0  43130-3 0  9999,2 54784  53.2163   1.9055 0001672  90.7471 269.3713 15.08840164 48161,6917.88,95.438,540.902,538.588,0.0
54784.0,STARLINK-5442,PAYLOAD,2023-10-19 04:24:06,15.08843104,0.0001698,53.2164,0.7159,92.4474,267.6713,0.00035032,5.292e-05,0.0,0 STARLINK-5442,1 54784U 22175AC  23292.18341229  .00005292  00000-0  35032-3 0  9997,2 54784  53.2164   0.7159 0001698  92.4474 267.6713 15.08843104 46047,6917.871,95.437,540.911,538.561,0.0
54784.0,STARLINK-5442,PAYLOAD,2023-10-19 12:21:02,15.08851666,0.0001742,53.2167,359.2301,90.8279,269.2913,0.00068129,0.00010575,0.0,0 STARLINK-5442,1 54784U 22175AC  23292.51461092  .00010575  00000-0  68129-3 0  9998,2 54784  53.2167 359.2301 0001742  90.8279 269.2913 15.08851666 48253,6917.845,95.437,540.915,538.505,0.0
54784.0,STARLINK-5442,PAYLOAD,2023-10-19 21:53:21,15.0884782,0.0001637,53.217,357.4443,92.8802,267.2377,0.00044238,6.761e-05,0.0,0 STARLINK-5442,1 54784U 22175AC  23292.91205140  .00006761  00000-0  44238-3 0  9999,2 54784  53.2170 357.4443 0001637  92.8802 267.2377 15.08847820 48317,6917.856,95.437,540.854,538.589,0.0
54784.0,STARLINK-5442,PAYLOAD,2023-10-20 10:36:26,15.0883319,0.0001684,53.2177,355.0629,102.9553,257.1628,-3.654e-05,-8.69e-06,0.0,0 STARLINK-5442,1 54784U 22175AC  23293.44197531 -.00000869  00000-0 -36540-4 0  9995,2 54784  53.2177 355.0629 0001684 102.9553 257.1628 15.08833190 46233,6917.901,95.438,540.931,538.601,0.0
54784.0,STARLINK-5442,PAYLOAD,2023-10-21 10:27:14,15.08817993,0.00016,53.2174,350.6043,101.8417,258.2754,-0.00031655,-5.319e-05,0.0,0 STARLINK-5442,1 54784U 22175AC  23294.43558621 -.00005319  00000-0 -31655-3 0  9992,2 54784  53.2174 350.6043 0001600 101.8417 258.2754 15.08817993 46387,6917.948,95.439,540.92,538.706,0.0
54784.0,STARLINK-5442,PAYLOAD,2023-10-21 13:38:01,15.08818725,0.0001496,53.2169,350.0085,107.9664,252.1491,-0.00024666,-4.209e-05,0.0,0 STARLINK-5442,1 54784U 22175AC  23294.56806747 -.00004209  00000-0 -24666-3 0  9992,2 54784  53.2169 350.0085 0001496 107.9664 252.1491 15.08818725 48562,6917.945,95.439,540.845,538.775,0.0
54784.0,STARLINK-5442,PAYLOAD,2023-10-22 03:56:29,15.08828435,0.000156,53.2169,347.3368,77.7059,282.4107,0.00017813,2.547e-05,0.0,0 STARLINK-5442,1 54784U 22175AC  23295.16423424  .00002547  00000-0  17813-3 0  9993,2 54784  53.2169 347.3368 0001560  77.7059 282.4107 15.08828435 46498,6917.916,95.438,540.86,538.702,0.0
54784.0,STARLINK-5442,PAYLOAD,2023-10-22 10:18:02,15.08843292,0.0001595,53.2174,346.1466,80.4756,279.6417,0.00050625,7.779e-05,0.0,0 STARLINK-5442,1 54784U 22175AC  23295.42919125  .00007779  00000-0  50625-3 0  9990,2 54784  53.2174 346.1466 0001595  80.4756 279.6417 15.08843292 46538,6917.87,95.437,540.839,538.632,0.0
54784.0,STARLINK-5442,PAYLOAD,2023-10-23 10:08:48,15.08852021,0.0001522,53.2167,341.6827,79.7477,280.3687,0.00042613,6.503e-05,0.0,0 STARLINK-5442,1 54784U 22175AC  23296.42278709  .00006503  00000-0  42613-3 0  9999,2 54784  53.2167 341.6827 0001522  79.7477 280.3687 15.08852021 46686,6917.844,95.437,540.762,538.656,0.0
54784.0,STARLINK-5442,PAYLOAD,2023-10-23 19:41:07,15.08847357,0.000158,53.2171,339.8982,79.8797,280.2373,0.00021911,3.202e-05,0.0,0 STARLINK-5442,1 54784U 22175AC  23296.82022558  .00003202  00000-0  21911-3 0  9993,2 54784  53.2171 339.8982 0001580  79.8797 280.2373 15.08847357 48906,6917.858,95.437,540.816,538.63,0.0
54784.0,STARLINK-5442,PAYLOAD,2023-10-24 03:38:03,15.08845002,0.0001686,53.2177,338.4135,82.5242,277.5942,-1.7801e-05,-5.71e-06,0.0,0 STARLINK-5442,1 54784U 22175AC  23297.15142562 -.00000571  00000-0 -17801-4 0  9990,2 54784  53.2177 338.4135 0001686  82.5242 277.5942 15.08845002 46791,6917.865,95.437,540.896,538.564,0.0
54784.0,STARLINK-5442,PAYLOAD,2023-10-24 09:59:35,15.08847706,0.0001634,53.2175,337.2236,88.1873,271.9306,3.5809e-05,2.82e-06,0.0,0 STARLINK-5442,1 54784U 22175AC  23297.41638309  .00000282  00000-0  35809-4 0  9993,2 54784  53.2175 337.2236 0001634  88.1873 271.9306 15.08847706 48992,6917.857,95.437,540.852,538.591,0.0
54784.0,STARLINK-5442,PAYLOAD,2023-10-25 09:50:22,15.08849636,0.0001541,53.2172,332.7626,89.0907,271.0262,6.0897e-05,6.82e-06,0.0,0 STARLINK-5442,1 54784U 22175AC  23298.40998273  .00000682  00000-0  60897-4 0  9991,2 54784  53.2172 332.7626 0001541  89.0907 271.0262 15.08849636 46980,6917.851,95.437,540.782,538.65,0.0
54784.0,STARLINK-5442,PAYLOAD,2023-10-26 01:44:14,15.0884041,0.0001674,53.2174,329.7886,89.1114,271.0069,0.0001162,1.562e-05,0.0,0 STARLINK-5442,1 54784U 22175AC  23299.07238663  .00001562  00000-0  11620-3 0  9992,2 54784  53.2174 329.7886 0001674  89.1114 271.0069 15.08840410 47082,6917.879,95.438,540.902,538.586,0.0
54784.0,STARLINK-5442,PAYLOAD,2023-10-26 11:16:32,15.08841694,0.0001711,53.2172,328.0035,92.2779,267.8409,9.038e-05,1.151e-05,0.0,0 STARLINK-5442,1 54784U 22175AC  23299.46982539  .00001151  00000-0  90380-4 0  9998,2 54784  53.2172 328.0035 0001711  92.2779 267.8409 15.08841694 49305,6917.875,95.437,540.924,538.557,0.0
54784.0,STARLINK-5442,PAYLOAD,2023-10-26 19:13:28,15.08848571,0.0001686,53.218,326.5179,92.7421,267.3764,3.428e-05,2.58e-06,0.0,0 STARLINK-5442,1 54784U 22175AC  23299.80102100  .00000258  00000-0  34280-4 0  9998,2 54784  53.2180 326.5179 0001686  92.7421 267.3764 15.08848571 49351,6917.854,95.437,540.886,538.553,0.0
54784.0,STARLINK-5442,PAYLOAD,2023-10-27 11:07:18,15.08857269,0.0001593,53.2158,323.5412,103.3762,256.7408,0.00025907,3.839e-05,0.0,0 STARLINK-5442,1 54784U 22175AC  23300.46341310  .00003839  00000-0  25907-3 0  9994,2 54784  53.2158 323.5412 0001593 103.3762 256.7408 15.08857269 47299,6917.828,95.436,540.795,538.591,0.0
54784.0,STARLINK-5442,PAYLOAD,2023-10-27 19:04:15,15.0883755,0.0002073,53.2171,322.0569,81.1028,279.0198,1.6968e-06,-2.61e-06,0.0,0 STARLINK-5442,1 54784U 22175AC  23300.79462585 -.00000261  00000-0  16968-5 0  9994,2 54784  53.2171 322.0569 0002073  81.1028 279.0198 15.08837550 47344,6917.888,95.438,541.187,538.319,0.0
54784.0,STARLINK-5442,PAYLOAD,2023-10-28 10:58:07,15.08834583,0.0001695,53.216,319.0799,94.5046,265.614,-2.8975e-05,-7.49e-06,0.0,0 STARLINK-5442,1 54784U 22175AC  23301.45702805 -.00000749  00000-0 -28975-4 0  9992,2 54784  53.2160 319.0799 0001695  94.5046 265.6140 15.08834583 49602,6917.897,95.438,540.935,538.589,0.0
